{"type": "FeatureCollection", "features": [ {"type": "Feature", "properties": {"norad_id": 31805, "name": "FENGYUN 1C DEB", "group": "fengyun-1c-debris", "lat": 17.68409183119849, "lon": -27.64354963895639, "alt_km": 1076.1938702703264, "timestamp": "2025-12-17T04:57:44.649569+00:00", "meta": {"OBJECT_NAME": "FENGYUN 1C DEB", "OBJECT_ID": "1999-025CGT", "EPOCH": "2025-12-16T10:02:29.251104", "MEAN_MOTION": 14.02836252, "ECCENTRICITY": 0.04472597, "INCLINATION": 98.3624, "RA_OF_ASC_NODE": 334.3173, "ARG_OF_PERICENTER": 148.4634, "MEAN_ANOMALY": 214.4191, "EPHEMERIS_TYPE": 0, "CLASSIFICATION_TYPE": "U", "NORAD_CAT_ID": 31805, "ELEMENT_SET_NO": 999, "REV_AT_EPOCH": 62415, "BSTAR": 0.00053903718, "MEAN_MOTION_DOT": 1.994e-05, "MEAN_MOTION_DDOT": 0}, "tle": {"line1": "1 31805U 99025CGT 25350.41839411  .00001994  00000+0  53904-3 0  9994", "line2": "2 31805  98.3624 334.3173 0447259 148.4634 214.4191 14.02836252624159"}}, "geometry": {"type": "Point", "coordinates": [-27.64354963895639, 17.68409183119849]}}, {"type": "Feature", "properties": {"norad_id": 31807, "name": "FENGYUN 1C DEB", "group": "fengyun-1c-debris", "lat": 46.90609056590265, "lon": 112.67678959038474, "alt_km": 728.748428818948, "timestamp": "2025-12-17T04:57:44.649578+00:00", "meta": {"OBJECT_NAME": "FENGYUN 1C DEB", "OBJECT_ID": "1999-025CGV", "EPOCH": "2025-12-16T02:16:49.866240", "MEAN_MOTION": 14.52069488, "ECCENTRICITY": 0.01056392, "INCLINATION": 99.0767, "RA_OF_ASC_NODE": 121.3142, "ARG_OF_PERICENTER": 152.484, "MEAN_ANOMALY": 208.2001, "EPHEMERIS_TYPE": 0, "CLASSIFICATION_TYPE": "U", "NORAD_CAT_ID": 31807, "ELEMENT_SET_NO": 999, "REV_AT_EPOCH": 65354, "BSTAR": 0.00064557716, "MEAN_MOTION_DOT": 2.753e-05, "MEAN_MOTION_DDOT": 0}, "tle": {"line1": "1 31807U 99025CGV 25350.09502160  .00002753  00000+0  64558-3 0  9999", "line2": "2 31807  99.0767 121.3142 0105639 152.4840 208.2001 14.52069488653544"}}, "geometry": {"type": "Point", "coordinates": [112.67678959038474, 46.90609056590265]}}, {"type": "Feature", "properties": {"norad_id": 31808, "name": "FENGYUN 1C DEB", "group": "fengyun-1c-debris", "lat": -10.612215361744521, "lon": -3.08917957433085, "alt_km": 695.1612539723956, "timestamp": "2025-12-17T04:57:44.649588+00:00", "meta": {"OBJECT_NAME": "FENGYUN 1C DEB", "OBJECT_ID": "1999-025CGW", "EPOCH": "2025-12-16T11:36:58.794912", "MEAN_MOTION": 14.57375366, "ECCENTRICITY": 0.00359342, "INCLINATION": 99.2045, "RA_OF_ASC_NODE": 177.8536, "ARG_OF_PERICENTER": 127.3641, "MEAN_ANOMALY": 233.0836, "EPHEMERIS_TYPE": 0, "CLASSIFICATION_TYPE": "U", "NORAD_CAT_ID": 31808, "ELEMENT_SET_NO": 999, "REV_AT_EPOCH": 57657, "BSTAR": 0.0034228214, "MEAN_MOTION_DOT": 0.0001563, "MEAN_MOTION_DDOT": 0}, "tle": {"line1": "1 31808U 99025CGW 25350.48401383  .00015630  00000+0  34228-2 0  9996", "line2": "2 31808  99.2045 177.8536 0035934 127.3641 233.0836 14.57375366576578"}}, "geometry": {"type": "Point", "coordinates": [-3.08917957433085, -10.612215361744521]}}, {"type": "Feature", "properties": {"norad_id": 31810, "name": "FENGYUN 1C DEB", "group": "fengyun-1c-debris", "lat": -22.0812246940305, "lon": -176.89862939418626, "alt_km": 703.1831704802416, "timestamp": "2025-12-17T04:57:44.649599+00:00", "meta": {"OBJECT_NAME": "FENGYUN 1C DEB", "OBJECT_ID": "1999-025CGY", "EPOCH": "2025-12-10T19:14:38.414400", "MEAN_MOTION": 14.45816782, "ECCENTRICITY": 0.02143836, "INCLINATION": 98.27, "RA_OF_ASC_NODE": 0.2345, "ARG_OF_PERICENTER": 146.2417, "MEAN_ANOMALY": 215.2641, "EPHEMERIS_TYPE": 0, "CLASSIFICATION_TYPE": "U", "NORAD_CAT_ID": 31810, "ELEMENT_SET_NO": 999, "REV_AT_EPOCH": 64386, "BSTAR": 0.00077969827, "MEAN_MOTION_DOT": 3.63e-05, "MEAN_MOTION_DDOT": 0}, "tle": {"line1": "1 31810U 99025CGY 25344.80183350  .00003630  00000+0  77970-3 0  9998", "line2": "2 31810  98.2700   0.2345 0214383 146.2417 215.2641 14.45816782643865"}}, "geometry": {"type": "Point", "coordinates": [-176.89862939418626, -22.0812246940305]}}, {"type": "Feature", "properties": {"norad_id": 31813, "name": "FENGYUN 1C DEB", "group": "fengyun-1c-debris", "lat": -5.094247894119052, "lon": -109.58964190207915, "alt_km": 798.1029799733451, "timestamp": "2025-12-17T04:57:44.649609+00:00", "meta": {"OBJECT_NAME": "FENGYUN 1C DEB", "OBJECT_ID": "1999-025CHB", "EPOCH": "2025-12-14T01:34:02.721792", "MEAN_MOTION": 14.49788762, "ECCENTRICITY": 0.01361095, "INCLINATION": 99.427, "RA_OF_ASC_NODE": 67.7481, "ARG_OF_PERICENTER": 329.7669, "MEAN_ANOMALY": 29.5718, "EPHEMERIS_TYPE": 0, "CLASSIFICATION_TYPE": "U", "NORAD_CAT_ID": 31813, "ELEMENT_SET_NO": 999, "REV_AT_EPOCH": 97275, "BSTAR": 0.00053593971, "MEAN_MOTION_DOT": 2.264e-05, "MEAN_MOTION_DDOT": 0}, "tle": {"line1": "1 31813U 99025CHB 25348.06530928  .00002264  00000+0  53594-3 0  9998", "line2": "2 31813  99.4270  67.7481 0136109 329.7669  29.5718 14.49788762972752"}}, "geometry": {"type": "Point", "coordinates": [-109.58964190207915, -5.094247894119052]}}, {"type": "Feature", "properties": {"norad_id": 31814, "name": "FENGYUN 1C DEB", "group": "fengyun-1c-debris", "lat": 78.6183802155227, "lon": -82.00791343457047, "alt_km": 1053.328590955488, "timestamp": "2025-12-17T04:57:44.649620+00:00", "meta": {"OBJECT_NAME": "FENGYUN 1C DEB", "OBJECT_ID": "1999-025CHC", "EPOCH": "2025-12-16T09:08:44.522304", "MEAN_MOTION": 13.66478743, "ECCENTRICITY": 0.02297902, "INCLINATION": 99.5709, "RA_OF_ASC_NODE": 40.2322, "ARG_OF_PERICENTER": 206.1257, "MEAN_ANOMALY": 152.8144, "EPHEMERIS_TYPE": 0, "CLASSIFICATION_TYPE": "U", "NORAD_CAT_ID": 31814, "ELEMENT_SET_NO": 999, "REV_AT_EPOCH": 61849, "BSTAR": 0.00058901435, "MEAN_MOTION_DOT": 5.41e-06, "MEAN_MOTION_DDOT": 0}, "tle": {"line1": "1 31814U 99025CHC 25350.38107086  .00000541  00000+0  58901-3 0  9995", "line2": "2 31814  99.5709  40.2322 0229790 206.1257 152.8144 13.66478743618495"}}, "geometry": {"type": "Point", "coordinates": [-82.00791343457047, 78.6183802155227]}}, {"type": "Feature", "properties": {"norad_id": 31815, "name": "FENGYUN 1C DEB", "group": "fengyun-1c-debris", "lat": -76.7560038609702, "lon": 18.398862343449135, "alt_km": 865.1919091811624, "timestamp": "2025-12-17T04:57:44.649629+00:00", "meta": {"OBJECT_NAME": "FENGYUN 1C DEB", "OBJECT_ID": "1999-025CHD", "EPOCH": "2025-12-16T05:30:02.127456", "MEAN_MOTION": 14.10281699, "ECCENTRICITY": 0.00590615, "INCLINATION": 98.7684, "RA_OF_ASC_NODE": 336.4677, "ARG_OF_PERICENTER": 12.3865, "MEAN_ANOMALY": 347.8742, "EPHEMERIS_TYPE": 0, "CLASSIFICATION_TYPE": "U", "NORAD_CAT_ID": 31815, "ELEMENT_SET_NO": 999, "REV_AT_EPOCH": 95588, "BSTAR": 4.9461709e-05, "MEAN_MOTION_DOT": 4.6e-07, "MEAN_MOTION_DDOT": 0}, "tle": {"line1": "1 31815U 99025CHD 25350.22919129  .00000046  00000+0  49462-4 0  9991", "line2": "2 31815  98.7684 336.4677 0059061  12.3865 347.8742 14.10281699955885"}}, "geometry": {"type": "Point", "coordinates": [18.398862343449135, -76.7560038609702]}}, {"type": "Feature", "properties": {"norad_id": 31816, "name": "FENGYUN 1C DEB", "group": "fengyun-1c-debris", "lat": 15.187784448410346, "lon": 102.9073082617406, "alt_km": 967.0778667411068, "timestamp": "2025-12-17T04:57:44.649638+00:00", "meta": {"OBJECT_NAME": "FENGYUN 1C DEB", "OBJECT_ID": "1999-025CHE", "EPOCH": "2025-12-13T18:57:26.398368", "MEAN_MOTION": 13.94186907, "ECCENTRICITY": 0.01209101, "INCLINATION": 98.9829, "RA_OF_ASC_NODE": 102.0455, "ARG_OF_PERICENTER": 151.8795, "MEAN_ANOMALY": 4.428, "EPHEMERIS_TYPE": 0, "CLASSIFICATION_TYPE": "U", "NORAD_CAT_ID": 31816, "ELEMENT_SET_NO": 999, "REV_AT_EPOCH": 93708, "BSTAR": 0.0015279259, "MEAN_MOTION_DOT": 2.112e-05, "MEAN_MOTION_DDOT": 0}, "tle": {"line1": "1 31816U 99025CHE 25347.78988887  .00002112  00000+0  15279-2 0  9999", "line2": "2 31816  98.9829 102.0455 0120910 151.8795   4.4280 13.94186907937085"}}, "geometry": {"type": "Point", "coordinates": [102.9073082617406, 15.187784448410346]}}, {"type": "Feature", "properties": {"norad_id": 31817, "name": "FENGYUN 1C DEB", "group": "fengyun-1c-debris", "lat": -46.64561031114401, "lon": -2.4792362579880347, "alt_km": 696.009021381572, "timestamp": "2025-12-17T04:57:44.649647+00:00", "meta": {"OBJECT_NAME": "FENGYUN 1C DEB", "OBJECT_ID": "1999-025CHF", "EPOCH": "2025-12-15T18:46:20.352864", "MEAN_MOTION": 14.65718144, "ECCENTRICITY": 0.0062787, "INCLINATION": 98.9194, "RA_OF_ASC_NODE": 346.4003, "ARG_OF_PERICENTER": 66.5515, "MEAN_ANOMALY": 294.227, "EPHEMERIS_TYPE": 0, "CLASSIFICATION_TYPE": "U", "NORAD_CAT_ID": 31817, "ELEMENT_SET_NO": 999, "REV_AT_EPOCH": 71450, "BSTAR": 0.00076085569, "MEAN_MOTION_DOT": 4.208e-05, "MEAN_MOTION_DDOT": 0}, "tle": {"line1": "1 31817U 99025CHF 25349.78218001  .00004208  00000+0  76086-3 0  9998", "line2": "2 31817  98.9194 346.4003 0062787  66.5515 294.2270 14.65718144714504"}}, "geometry": {"type": "Point", "coordinates": [-2.4792362579880347, -46.64561031114401]}}, {"type": "Feature", "properties": {"norad_id": 31819, "name": "FENGYUN 1C DEB", "group": "fengyun-1c-debris", "lat": 27.50943176641443, "lon": -22.054498254815623, "alt_km": 779.3258426067878, "timestamp": "2025-12-17T04:57:44.649656+00:00", "meta": {"OBJECT_NAME": "FENGYUN 1C DEB", "OBJECT_ID": "1999-025CHH", "EPOCH": "2025-12-15T05:49:11.822880", "MEAN_MOTION": 14.30181916, "ECCENTRICITY": 0.00867999, "INCLINATION": 98.474, "RA_OF_ASC_NODE": 340.4855, "ARG_OF_PERICENTER": 313.0527, "MEAN_ANOMALY": 46.341, "EPHEMERIS_TYPE": 0, "CLASSIFICATION_TYPE": "U", "NORAD_CAT_ID": 31819, "ELEMENT_SET_NO": 999, "REV_AT_EPOCH": 96729, "BSTAR": 0.00043519563, "MEAN_MOTION_DOT": 1.13e-05, "MEAN_MOTION_DDOT": 0}, "tle": {"line1": "1 31819U 99025CHH 25349.24249795  .00001130  00000+0  43520-3 0  9993", "line2": "2 31819  98.4740 340.4855 0086799 313.0527  46.3410 14.30181916967290"}}, "geometry": {"type": "Point", "coordinates": [-22.054498254815623, 27.50943176641443]}}]}